#dP2022  6 11  0  0  0.00000000      96 __u+U ITR00 EXT  IAC
## 2213 518400.00000000   900.00000000 59741 0.0000000000000
+  115   C06C07C08C09C11C12C13C14C16C19C20C21C22C23C24C25C26
+        C27C28C29C30C32C33C34C35C36C37C38C39C40C41C42C43C44
+        C45C46E01E02E03E04E05E07E08E09E10E11E12E13E14E15E18
+        E19E21E24E25E26E27E30E31E33E34E36G01G02G03G04G05G06
+        G07G08G09G10G11G12G13G14G15G16G17G18G19G20G21G22G23
+        G24G25G26G27G28G29G30G31G32J02J03R01R02R03R04R05R07
+        R08R09R11R12R13R14R15R17R18R19R20R21R24  0  0  0  0
++        10  9 10 11  9 10  8  8  9  9  8  9 10  7  7  9  8
++         7  8  8  8  7  9  7  7  9  9 10  8  8  7  9  9  8
++         8  8  9  7  7  8  8  7  6  8 10  8  8  7  8  8  7
++         8  9  7  7  8  7  7  8  8  7  8  7  7  7  8  7  6
++         7  6  7  7  8  7  8  9  7  8  6  7  8 10  8  7  8
++         7  6  7  6  7  7  7  7  6  7  9  8  8  9  8  8  8
++         8  9  9  9  9  9  7  6  7  9  8  6  8  0  0  0  0
%c M  cc GPS ccc cccc cccc cccc cccc ccccc ccccc ccccc ccccc
%c cc cc ccc ccc cccc cccc cccc cccc ccccc ccccc ccccc ccccc
%f  0.0000000  0.000000000  0.00000000000  0.000000000000000
%f  0.0000000  0.000000000  0.00000000000  0.000000000000000
%i    0    0    0    0      0      0      0      0         0
%i    0    0    0    0      0      0      0      0         0
/* IAC                                ULTRA-RAPID PREDICTION
/* S/V CLOCKS ARE ALIGNED TO GNSS TIME                      
/* G:C1WC2W R:C1PC2P E:C1XC5X C:C2IC6I J:C1CC2S             
/* PCV:IGS14_2196 OL/AL:FES2004  NONE     YN ORB:CoN CLK:CoN
*  2022 06 11  0 15  0.00000000
PC06  -7150.800278  40909.512103  -6629.745556    164.127583
PC07  -4509.138028  27345.297366  31811.582256   -282.680525
PC08 -19271.602385  27297.558958 -25813.428410    356.510387
PC09  -3625.312882  41726.669887    833.791365   -871.471771
PC11   8113.712186 -23881.674973 -11849.903765    406.870997
PC12  14835.730255  -7214.907661 -22477.197702   -600.805542
PC13 -12534.040836  28023.860753 -28899.237572     -7.442497
PC14   8271.150264 -13543.650031  22977.960790    499.218455
PC16  -9142.256440  39660.935562 -10322.141171    138.650577
PC19   2318.578527  17922.486826 -21242.600247    859.664933
PC20 -15708.683608   8198.594849 -21532.846021   -953.609070
PC21  25494.628498   7173.906911   8858.111504   -460.933132
PC22  19746.874826  17742.692422  -8653.750310   -965.051474
PC23 -10554.493028 -12584.366010 -22551.557604   -933.395880
PC24  23396.961873 -15118.641402  -1464.873596   -971.223899
PC25   7771.256751 -19986.386617 -17852.113497   -723.693999
PC26  23962.072080  -3280.985582  13884.180037    725.247593
PC27 -15773.197573  -3220.170203  22770.106869    737.056825
PC28 -10133.834796 -21534.948112  14565.102504     77.123092
PC29   -814.499952  27750.805770   2804.732618    566.710152
PC30 -12132.112658  17050.458308  18439.206099    499.734812
PC32 -25529.500201  -7024.981906  -8767.612712   -967.515228
PC33  -2254.789959 -17899.379236  21291.708586   -968.948011
PC34  11747.501658 -18013.647148 -17811.687424   -383.617687
PC35  10411.378179  21948.093479 -13719.077027    314.986953
PC36  -8771.847627  19871.455874  17547.629094   -967.368815
PC37 -23620.941535   1785.247854 -14747.956465   -908.955591
PC38 -24825.582152  28558.582515 -18731.035468      2.283782
PC39 -10638.345326  37274.143211 -16364.384103     34.995978
PC40  -8911.116129  21275.085035  35294.556005    276.414671
PC41 -19404.679305 -17861.238568   9164.432189   -969.741273
PC42  16666.922723  -7479.842982  21148.330712   -961.945051
PC43   1419.320149 -27661.661752  -3512.167885   -918.894756
PC44  16025.914731   2833.412127 -22682.879334    688.352053
PC45  10781.654345  12293.023247  22618.755996    780.235877
PC46 -22735.042191  15940.468155   2975.671261   -372.351549
PE01  28022.908214  -5668.078614  -7658.936540   -493.763380
PE02 -27965.516867   5776.419880   7818.849758    304.877478
PE03 -16929.116641   4548.169973 -23845.576589   -567.520724
PE04   3250.427260 -21693.829073  19883.920955  -1047.319581
PE05 -20945.771779 -15651.945668 -13860.418274   -173.315844
PE07  12735.701623  26425.456408  -4001.229363   -677.212031
PE08  -2859.796073  21801.581231 -19816.390253   -544.452871
PE09 -12858.458361 -26353.342330   3981.420747   -549.136659
PE10   6301.669152 -26732.566093  11022.281311   -518.878554
PE11  -1907.121299 -22506.016547  19124.395999   3390.514738
PE12  13174.617874 -26467.614586   1639.357430     -4.497616
PE13   1373.704122  22880.402720 -18728.597809    429.218193
PE14   9414.255508  28056.529176   1780.831527  -1811.500089
PE15 -13186.342257  26454.070353  -1503.330988    740.174140
PE18   1488.461181 -24504.670909 -11993.584456  -1344.239595
PE19  17997.422922  -1824.326827  23441.018856  -5409.698117
PE21  27193.743769   6210.887427   9905.871015   -739.433216
PE24  -9418.180702 -15742.309231 -23246.143567   -663.884361
PE25 -27066.316765  -6375.186543 -10143.974562   -577.135064
PE26  15624.671687   5033.064317 -24635.507405  -1248.176746
PE27  10732.013117  15376.330552  22905.740420   -319.250897
PE30 -12974.888263  15145.005384  21869.732062   -582.521474
PE31  11885.083178 -15403.950638 -22299.162516   -498.070674
PE33  19898.156600 -14411.860236 -16519.594216   -455.759755
PE34 -19856.139796  14631.678786  16355.759015   -521.531988
PE36 -15000.132965  -5919.375481  24816.569772   -386.341853
PG01 -13532.170074  22422.729049  -3363.903711    343.918905
PG02  18522.483840 -10071.995211 -15595.410801   -652.788514
PG03 -11088.079642  12939.041884 -20454.173156   -274.558465
PG04  -4420.073738  19940.674219 -16920.099269   -158.367007
PG05  23645.252416  -6144.945504  10434.506596    -85.078430
PG06  13495.624005   6088.396759 -21997.318038    338.603969
PG07   -511.087815  20941.655883  16436.450272    321.906189
PG08 -10069.141230  12619.168810  20984.511892    -71.633110
PG09   4850.097122  24524.866961  -8987.691252   -329.457881
PG10 -19220.501208 -11615.245668  14556.879113   -449.973785
PG11  19896.508121  -7159.606644 -16062.987792    -16.019394
PG12  15507.849705 -10663.461701 -18966.575357   -229.204987
PG13  14884.746476  -2418.131889  21719.872420    327.686607
PG14  17628.877523  13052.655015  15043.054792   -111.241538
PG15   8549.416382 -14499.033830  20064.825943    -54.219294
PG16 -26019.496704   -448.673609   6134.010297   -508.020962
PG17  13435.223782  21666.082957  -6918.007978    623.511195
PG18   1898.705528 -21043.158667  16014.695155    145.676403
PG19  15873.463174  15694.097425 -14820.273324    169.056828
PG20  26393.305162  -1162.159211   -859.822500    512.476340
PG21 -17351.688294  18128.684606   8169.092561    161.309133
PG22 -16532.829845 -13239.045208 -15717.410534    273.736670
PG23  -8609.692330 -14608.477782  20460.110115    -27.307219
PG24  14276.562687 -22060.211272   1419.156065    223.449714
PG25   -165.698127 -15483.551297 -21876.436609    335.833915
PG26 -25896.928915  -4501.825814  -4932.241303    211.544692
PG27 -16281.660590  -1348.872253  20806.435220    214.288900
PG28  23215.727815  10040.597973   8208.615773    340.623184
PG29  -3078.810687 -24881.365940  -8713.830212   -522.791485
PG30   7995.190080  14788.773677  20600.768979   -530.986331
PG31 -15846.479858  -3793.344363 -21181.565114   -181.295567
PG32 -16059.406968 -19215.263403  -8978.958061   -148.181048
PJ02 -30401.626071  23793.031059  21878.003447     -0.594026
PJ03 -27893.367549  27867.347992  19886.587577     -2.766271
PR01  -6578.845707 -16426.651121  18370.622712      9.772660
PR02 -19158.664680 -16849.170605   1216.965601    520.942348
PR03 -19352.369054  -6654.527801 -15214.455253     58.216460
PR04  -8580.096307   6839.445258 -22995.842802    145.853888
PR05   6735.096280  16680.888292 -18059.794319     94.409395
PR07  19028.637733   5987.644324  15912.031156     36.257964
PR08   8508.205758  -7118.680448  23028.452107    -65.620196
PR09  14238.500682   5272.143551  20538.887251     59.826971
PR11  20345.965371 -12501.403024  -8978.133980     36.582135
PR12   4227.676088 -12685.629097 -21691.593563     18.809647
PR13 -12885.868694  -5877.783712 -21226.204508    -23.455165
PR14 -23790.350638   5192.182905  -7550.952206     25.295452
PR15 -19924.495619  12539.258307   9835.754820     95.488788
PR17 -11014.470001   2717.663379  22850.569947    533.834426
PR18  -9874.404591  18792.440761  14109.782535    119.871286
PR19  -4842.221572  25028.891523   -943.236753   -192.255802
PR20   5069.206355  16391.307346 -18858.393643    -72.390355
PR21  11094.350557  -4264.681525 -22573.829483   -308.419069
PR24  -6163.856327 -15760.891145  19089.033811     98.086578
EOF
